HAWK-11C                
1 62381U 24247E   26068.51221537  .00009223  00000+0  33290-3 0  9992
2 62381  45.0045 114.8762 0005900 329.7040  30.3502 15.28848020 67743
STARLINK-34155          
1 64019U 25101AB  26068.66670139  .00035482  00000+0  12939-2 0  9996
2 64019  43.0017 358.2204 0001407 280.9514 314.4148 15.27548469  5878
